#dP2023  1  5  0  0  0.00000000      96 __u+U ITR00 FIT  IAC
## 2243 345600.00000000   900.00000000 59949 0.0000000000000
+  117   C06C07C08C09C10C11C12C13C14C16C19C20C21C22C23C24C25
+        C26C27C28C29C30C32C33C34C36C37C38C39C40C41C42C43C44
+        C45C46E01E02E03E04E05E07E08E09E10E11E12E13E14E15E18
+        E19E21E24E25E26E27E30E31E33E34E36G01G02G03G04G05G06
+        G07G08G09G10G11G12G13G14G15G16G17G18G19G20G21G22G23
+        G24G25G26G27G29G30G31G32J02J04R01R02R03R04R05R07R08
+        R09R11R12R13R14R15R16R17R18R19R20R21R22R24R25  0  0
++         0  0  0  0  0  0  0  0  0  0  0  0  0  0  0  0  0
++         0  0  0  0  0  0  0  0  0  0  0  0  0  0  0  0  0
++         0  0  0  0  0  0  0  0  0  0  0  0  0  0  0  0  0
++         0  0  0  0  0  0  0  0  0  0  0  0  0  0  0  0  0
++         0  0  0  0  0  0  0  0  0  0  0  0  0  0  0  0  0
++         0  0  0  0  0  0  0  0  0  0  0  0  0  0  0  0  0
++         0  0  0  0  0  0  0  0  0  0  0  0  0  0  0  0  0
%c M  cc GPS ccc cccc cccc cccc cccc ccccc ccccc ccccc ccccc
%c cc cc ccc ccc cccc cccc cccc cccc ccccc ccccc ccccc ccccc
%f  0.0000000  0.000000000  0.00000000000  0.000000000000000
%f  0.0000000  0.000000000  0.00000000000  0.000000000000000
%i    0    0    0    0      0      0      0      0         0
%i    0    0    0    0      0      0      0      0         0
/* INFORMATION & ANALYSIS CENTER (IAC)      ULTRA-RAPID DATA
/* S/V CLOCKS ARE ALIGNED TO GNSS TIME                      
/* G:C1WC2W R:C1PC2P E:C1XC5X C:C2IC6I J:C1CC2S             
/* PCV:IGS20_2239 OL/AL:FES2004  NONE     YN ORB:CoN CLK:CoN
*  2023 01 05  3 45  0.00000000
PC06  -7421.582406  23582.529913  34142.188580    208.047199
PC07 -14882.639863  37533.811916 -12346.621955     61.304722
PC08    182.244114  36870.440600 -20286.553677    526.739721
PC09   1551.303698  25675.259952  33861.712793    132.427646
PC10 -10449.714648  37545.260558 -16390.195867     38.388263
PC11  -1521.340670 -15545.992144  23200.268089   -195.942651
PC12  18084.889056 -10538.127449  18497.157779    381.157976
PC13   4163.989614  38918.024764 -15133.976650    175.565542
PC14   4666.289916 -23738.726083 -13849.376402    335.487489
PC16 -10646.308730  22197.019106  34396.580329     88.372394
PC19   3611.164742  19047.501124  20100.290899   -898.733769
PC20 -10999.224958  24671.105867   7065.020959    779.762197
PC21  20096.619331 -15745.033960  11263.676166   -919.400348
PC22  16832.741293   2185.846457  22144.150049   -702.526228
PC23 -18804.795741 -13813.165542  15310.846088   -870.924218
PC24   3363.025035 -21756.358896 -17186.571110   -582.496300
PC25 -12435.938091 -24995.177997   -285.249641     50.465059
PC26  14597.516721  -7246.670313 -22670.135161    -59.825186
PC27 -24459.219014   6146.289738 -11946.819193     76.796812
PC28 -26967.937087  -5566.042550   4542.943364     55.272193
PC29  13574.714708  14401.173427 -19677.497763     63.162840
PC30  -8401.135119  14939.694901 -22019.913569      1.263236
PC32 -19982.515156  15860.936299 -11300.593414   -659.976017
PC33  -3656.189395 -19092.912256 -20014.863803   -884.375104
PC34   7096.463010 -15232.059042  22275.903502     76.629718
PC36  11426.287582  25435.710908    928.134029   -717.195901
PC37 -15457.491181   5358.514161  22613.665230   -857.607306
PC38      0.000000      0.000000      0.000000 999999.999999
PC39 -16018.810299  20732.376977  33006.044162     -1.307369
PC40 -22579.197554  34024.245820 -10943.224361    -11.777188
PC41 -16567.797636  -2730.395194 -22238.410185   -458.008595
PC42  11857.355082 -24566.234472  -5807.022184   -915.200828
PC43 -12686.514399 -14752.005914  19990.928667      0.448777
PC44  24380.777369  -6959.334272  11687.724314    167.255986
PC45  18758.331760  13450.295085 -15670.192676    -43.546501
PC46  -1871.994183  22731.832923  16039.589852    -24.291132
PE01  15163.458486   9712.690668 -23492.608838   -590.201913
PE02 -15253.275787  -9366.975641  23573.432611     12.793546
PE03 -24548.775482  -1474.746590 -16484.692008   -636.781992
PE04  26732.719143 -12704.761935   -540.600577    -29.295396
PE05  -7855.522279 -15123.613459 -24203.923998   -108.269615
PE07 -13216.193453  19742.337110  17658.674356    -12.698425
PE08 -26731.818376  12710.802418    455.036360    -14.254970
PE09  13400.893860 -19663.947967 -17601.578350   -788.817002
PE10  12270.793018 -10813.182415  24671.077692   -502.810587
PE11   1710.902352 -17617.437425  23720.024505    320.120996
PE12  20028.259381  -3011.135911  21597.757157   -372.814278
PE13  -2560.473290  17100.953915 -24014.407222    430.095692
PE14 -14222.930560 -11264.008494  17980.786537    104.444820
PE15 -20184.396589   2721.645097 -21464.646381    696.276775
PE18   5656.492803  19053.080952 -23808.880410   -546.361542
PE19  22968.235269   3530.317361  18340.979062  -3566.686177
PE21   6527.625268  25715.922754 -13117.414038   -504.410908
PE24   7221.221997 -28008.967249  -6381.204869  -1040.478634
PE25  -6323.246736 -25914.080950  12847.892919   -596.499334
PE26  16937.688306  21281.380796 -11664.768907  -1860.777267
PE27  -6536.913922  28324.789137   5530.861599   -480.047967
PE30 -15880.028005  13423.456463  21046.177415  -1134.666495
PE31  15614.655620 -14247.562465 -20722.978611   -512.487145
PE33  25771.214841  13150.459433   6282.431875   -454.786089
PE34 -25808.844223 -13000.533406  -6426.892847    -23.209551
PE36 -16339.269660 -21295.031954  12480.746576   -485.736333
PG01  22053.325989  14029.427263   5353.595794    228.447099
PG02 -23189.765839 -10023.654897  -7192.235670   -629.175665
PG03  12973.039671   9175.032803  21181.495740   -373.798960
PG04  22506.485235   2627.858286  13949.046430    -55.047896
PG05  -6770.788409 -21936.622649 -13422.678084   -110.769801
PG06   4227.497700 -14973.215558  21580.958739    553.188564
PG07  20667.255759   1809.664277 -16426.338562    263.875415
PG08  13760.210626   9923.073705 -20574.960925   -102.046805
PG09  25285.834355  -7122.837055   4008.799016   -241.893732
PG10 -11232.098963  20868.267060 -11495.024064    -19.094076
PG11  -7791.899434 -20789.547985  14615.591283    -71.602719
PG12 -11928.068622 -11304.410639  20612.950838   -324.303220
PG13  -5403.031588 -14224.193956 -21955.663445    453.980793
PG14  13345.084359 -18704.400394 -13211.813820    -55.578486
PG15 -15189.409857  -8980.349512 -20371.027364      1.890245
PG16   1741.619637  23963.733511 -11077.426703   -524.715437
PG17  21183.177590 -13286.316062   9526.505505    691.131018
PG18 -18700.119235    984.218467 -18888.757828    -86.451815
PG19  12154.787560 -15434.231631  17514.562643    259.869831
PG20  -1080.430988 -26619.123495  -1439.873089    459.072975
PG21  21096.404812  16558.877386  -2437.208817    153.197298
PG22  -8146.351733  16488.149382  19529.548307    399.262991
PG23 -14714.482411  10732.469057 -19280.819395      1.598945
PG24 -22270.597000 -14871.778888    442.900760    -15.918716
PG25 -15292.309872   -214.599283  21392.734562    408.457850
PG26  -4099.011097  25964.704786   2044.556553    239.769585
PG27   1721.012531  15340.478062 -21796.280983    135.029811
PG29 -25638.448542   3090.459977   6338.639247   -578.512765
PG30  12437.544979  -9963.846254 -21176.464099   -534.019765
PG31  -3324.671705  16262.517311  20468.015558   -205.392016
PG32 -18241.490691  15591.841606  11317.354778   -353.531138
PJ02 -29338.993866  25566.797316  21282.795580     -0.492166
PJ04 -23228.299956  34383.628116  -3046.609935    117.499395
PR01 -12669.744693  -1971.582025 -22053.231649     20.710246
PR02 -19630.744006  12966.619581  -9728.573346    -23.338278
PR03 -14372.494734  19585.758200   7716.749060     70.332811
PR04  -1543.220082  15022.080639  20578.358453    171.188262
PR05  12293.294197   2414.175972  22233.265978    105.683330
PR07  14040.083487 -19620.464331  -8328.617729     47.402676
PR08   1340.259160 -15040.975999 -20513.422890    -68.855100
PR09  10381.343315  -4710.081468 -22802.889527     96.823797
PR11  -7006.501710 -24521.043608    -44.914010      9.283081
PR12 -12466.922806 -14185.766829  17177.210143     24.100985
PR13 -10674.821096   2802.759318  22976.340673    -30.644259
PR14  -2003.499307  20299.342224  15330.394549     24.180300
PR15   7235.513644  24437.815521  -1028.193021     91.909945
PR16  12449.311730  14438.499278 -16958.992403      9.558793
PR17  -7708.481664   8618.327573 -22725.934447    592.969890
PR18  10145.423950  12181.607386 -19979.654395     60.233393
PR19  21753.731851  10554.660056  -8117.050555   -217.093564
PR20  22329.616199   1269.680114  12320.410046    -85.257379
PR21   5938.525530  -9137.795905  23067.386052   -362.964429
PR22 -10292.898352 -12933.331087  19453.616366     65.263376
PR24 -22108.804699     -1.942010 -12710.745182    137.447017
PR25   8534.470261  -8399.758953  22529.639348     50.742827
EOF
